{
  "links" : {
    "next" : "https://api.nasa.gov/neo/rest/v1/feed?start_date=2007-05-09&end_date=2007-05-09&detailed=true&api_key=t0TVs3DtDT2H8Oy2Zy8m2eVrNsAVKAexjcZXUckd",
    "prev" : "https://api.nasa.gov/neo/rest/v1/feed?start_date=2007-05-07&end_date=2007-05-07&detailed=true&api_key=t0TVs3DtDT2H8Oy2Zy8m2eVrNsAVKAexjcZXUckd",
    "self" : "https://api.nasa.gov/neo/rest/v1/feed?start_date=2007-05-08&end_date=2007-05-08&detailed=true&api_key=t0TVs3DtDT2H8Oy2Zy8m2eVrNsAVKAexjcZXUckd"
  },
  "element_count" : 5,
  "near_earth_objects" : {
    "2007-05-08" : [ {
      "links" : {
        "self" : "https://api.nasa.gov/neo/rest/v1/neo/2001862?api_key=t0TVs3DtDT2H8Oy2Zy8m2eVrNsAVKAexjcZXUckd"
      },
      "neo_reference_id" : "2001862",
      "name" : "1862 Apollo (1932 HA)",
      "nasa_jpl_url" : "http://ssd.jpl.nasa.gov/sbdb.cgi?sstr=2001862",
      "absolute_magnitude_h" : 16.25,
      "estimated_diameter" : {
        "kilometers" : {
          "estimated_diameter_min" : 1.4947032424,
          "estimated_diameter_max" : 3.3422580561
        },
        "meters" : {
          "estimated_diameter_min" : 1494.7032423559,
          "estimated_diameter_max" : 3342.2580560972
        },
        "miles" : {
          "estimated_diameter_min" : 0.9287652484,
          "estimated_diameter_max" : 2.0767822306
        },
        "feet" : {
          "estimated_diameter_min" : 4903.8821856511,
          "estimated_diameter_max" : 10965.4139207661
        }
      },
      "is_potentially_hazardous_asteroid" : true,
      "close_approach_data" : [ {
        "close_approach_date" : "2007-05-08",
        "epoch_date_close_approach" : 1178607600000,
        "relative_velocity" : {
          "kilometers_per_second" : "19.1791134327",
          "kilometers_per_hour" : "69044.8083576674",
          "miles_per_hour" : "42901.758837574"
        },
        "miss_distance" : {
          "astronomical" : "0.0714216315",
          "lunar" : "27.7830142975",
          "kilometers" : "10684524",
          "miles" : "6639055.5"
        },
        "orbiting_body" : "Earth"
      } ],
      "orbital_data" : {
        "orbit_id" : "285",
        "orbit_determination_date" : "2017-05-18 06:20:46",
        "orbit_uncertainty" : "0",
        "minimum_orbit_intersection" : ".025757",
        "jupiter_tisserand_invariant" : "4.415",
        "epoch_osculation" : "2455958.5",
        "eccentricity" : ".5597614018825802",
        "semi_major_axis" : "1.470162312389734",
        "inclination" : "6.353445562610878",
        "ascending_node_longitude" : "35.73168803474559",
        "orbital_period" : "651.0979905314456",
        "perihelion_distance" : ".6472221954115209",
        "perihelion_argument" : "285.8593797344928",
        "aphelion_distance" : "2.293102429367948",
        "perihelion_time" : "2456235.887493374093",
        "mean_anomaly" : "206.6290803122197",
        "mean_motion" : ".5529121656575184",
        "equinox" : "J2000"
      }
    }, {
      "links" : {
        "self" : "https://api.nasa.gov/neo/rest/v1/neo/2309214?api_key=t0TVs3DtDT2H8Oy2Zy8m2eVrNsAVKAexjcZXUckd"
      },
      "neo_reference_id" : "2309214",
      "name" : "309214 (2007 LL)",
      "nasa_jpl_url" : "http://ssd.jpl.nasa.gov/sbdb.cgi?sstr=2309214",
      "absolute_magnitude_h" : 20.4,
      "estimated_diameter" : {
        "kilometers" : {
          "estimated_diameter_min" : 0.2210828104,
          "estimated_diameter_max" : 0.4943561926
        },
        "meters" : {
          "estimated_diameter_min" : 221.0828103591,
          "estimated_diameter_max" : 494.3561926196
        },
        "miles" : {
          "estimated_diameter_min" : 0.137374447,
          "estimated_diameter_max" : 0.3071786018
        },
        "feet" : {
          "estimated_diameter_min" : 725.3373275385,
          "estimated_diameter_max" : 1621.9035709942
        }
      },
      "is_potentially_hazardous_asteroid" : false,
      "close_approach_data" : [ {
        "close_approach_date" : "2007-05-08",
        "epoch_date_close_approach" : 1178607600000,
        "relative_velocity" : {
          "kilometers_per_second" : "6.6685499295",
          "kilometers_per_hour" : "24006.7797462887",
          "miles_per_hour" : "14916.8793373537"
        },
        "miss_distance" : {
          "astronomical" : "0.0863379658",
          "lunar" : "33.5854682922",
          "kilometers" : "12915976",
          "miles" : "8025615.5"
        },
        "orbiting_body" : "Earth"
      } ],
      "orbital_data" : {
        "orbit_id" : "79",
        "orbit_determination_date" : "2017-04-06 09:23:56",
        "orbit_uncertainty" : "1",
        "minimum_orbit_intersection" : ".0847619",
        "jupiter_tisserand_invariant" : "6.148",
        "epoch_osculation" : "2458000.5",
        "eccentricity" : ".1741189211272803",
        "semi_major_axis" : ".9806683634597565",
        "inclination" : "10.053773306079",
        "ascending_node_longitude" : "247.0777254559371",
        "orbital_period" : "354.7167319101019",
        "perihelion_distance" : ".809915446030488",
        "perihelion_argument" : "211.4540997314136",
        "aphelion_distance" : "1.151421280889025",
        "perihelion_time" : "2458022.607194122985",
        "mean_anomaly" : "337.5635340306094",
        "mean_motion" : "1.014894330079803",
        "equinox" : "J2000"
      }
    }, {
      "links" : {
        "self" : "https://api.nasa.gov/neo/rest/v1/neo/3373975?api_key=t0TVs3DtDT2H8Oy2Zy8m2eVrNsAVKAexjcZXUckd"
      },
      "neo_reference_id" : "3373975",
      "name" : "(2007 GW5)",
      "nasa_jpl_url" : "http://ssd.jpl.nasa.gov/sbdb.cgi?sstr=3373975",
      "absolute_magnitude_h" : 21.6,
      "estimated_diameter" : {
        "kilometers" : {
          "estimated_diameter_min" : 0.1272198785,
          "estimated_diameter_max" : 0.2844722965
        },
        "meters" : {
          "estimated_diameter_min" : 127.2198785394,
          "estimated_diameter_max" : 284.4722965033
        },
        "miles" : {
          "estimated_diameter_min" : 0.0790507431,
          "estimated_diameter_max" : 0.1767628354
        },
        "feet" : {
          "estimated_diameter_min" : 417.3880663071,
          "estimated_diameter_max" : 933.3080892598
        }
      },
      "is_potentially_hazardous_asteroid" : false,
      "close_approach_data" : [ {
        "close_approach_date" : "2007-05-08",
        "epoch_date_close_approach" : 1178607600000,
        "relative_velocity" : {
          "kilometers_per_second" : "14.0753971362",
          "kilometers_per_hour" : "50671.4296902808",
          "miles_per_hour" : "31485.2558539414"
        },
        "miss_distance" : {
          "astronomical" : "0.2155969858",
          "lunar" : "83.867225647",
          "kilometers" : "32252850",
          "miles" : "20040992"
        },
        "orbiting_body" : "Earth"
      } ],
      "orbital_data" : {
        "orbit_id" : "15",
        "orbit_determination_date" : "2017-04-06 09:06:35",
        "orbit_uncertainty" : "0",
        "minimum_orbit_intersection" : ".214372",
        "jupiter_tisserand_invariant" : "4.518",
        "epoch_osculation" : "2458000.5",
        "eccentricity" : ".2876623020945091",
        "semi_major_axis" : "1.448011903764923",
        "inclination" : "23.81954747295993",
        "ascending_node_longitude" : "32.67472269292907",
        "orbital_period" : "636.4387660355345",
        "perihelion_distance" : "1.031473466067653",
        "perihelion_argument" : "261.0934563485723",
        "aphelion_distance" : "1.864550341462194",
        "perihelion_time" : "2458113.104142095906",
        "mean_anomaly" : "296.3057479872888",
        "mean_motion" : ".5656475048534363",
        "equinox" : "J2000"
      }
    } ]
  }
}